SL-16 R/B               
1 26070U 00006B   26108.43585970 -.00000107  00000+0 -30029-4 0  9996
2 26070  71.0044  14.2632 0014729 125.8069 234.4425 14.15828366354184
TITAN 4B R/B            
1 26474U 00047B   26108.84404453  .00001889  00000+0  12255-3 0  9996
2 26474  67.9866 287.5674 0041690 349.1970  10.8279 15.09879487398970
ENVISAT                 
1 27386U 02009A   26108.86043101  .00000049  00000+0  29727-4 0  9990
2 27386  98.3790  61.5181 0001161  85.4147 284.2399 14.39050082264959
IDEFIX & ARIANE 42P R/B 
1 27422U 02021B   26108.83926786  .00000157  00000+0  76211-4 0  9991
2 27422  98.5914  46.9773 0012973  70.8821 289.3765 14.31052082249763
AQUA                    
1 27424U 02022A   26108.85222735  .00000560  00000+0  12136-3 0  9992
2 27424  98.4237  76.9695 0001887 103.5874 286.5684 14.62063087274603
CZ-4B R/B               
1 27432U 02024C   26108.62302257  .00000028  00000+0  37752-4 0  9997
2 27432  98.8758 161.8128 0049035 269.5304 204.9585 14.14554656234881
MIDORI II (ADEOS-II)    
1 27597U 02056A   26108.84598453  .00000185  00000+0  90655-4 0  9998
2 27597  98.7834  67.6190 0000446 146.8639 213.2570 14.29314518216031
H-2A R/B                
1 27601U 02056E   26108.49495067  .00000217  00000+0  90492-4 0  9997
2 27601  98.3267  67.3623 0071119  43.7476  66.2093 14.33788620219819
CZ-4B R/B               
1 28059U 03049C   26108.54349275  .00000269  00000+0  73012-4 0  9999
2 28059  98.6900 105.0213 0049274 109.6324 251.0199 14.55054893192396
CZ-2C R/B               
1 28222U 04012C   26108.45649588  .00052160  00000+0  44226-3 0  9993
2 28222  97.7142 177.6535 0014004 160.6615 199.5180 15.69401122210508
SL-16 R/B               
1 28353U 04021B   26108.69242649 -.00000074  00000+0 -13953-4 0  9994
2 28353  71.0000 148.5472 0006547 317.7872  42.2746 14.14605814128492
CZ-4B R/B               
1 28415U 04035C   26108.81940781  .00006158  00000+0  21335-3 0  9993
2 28415  97.3427 142.5856 0031637 182.8893 177.2170 15.29723363186049
CZ-2C R/B               
1 28480U 04046B   26108.52269786  .00000123  00000+0  60782-4 0  9990
2 28480  98.1972  21.0238 0140226  37.4967 323.5897 14.27007721114180
