[
    {
        "OBJECT_NAME": "SL-16 R/B",
        "OBJECT_ID": "2000-006B",
        "EPOCH": "2026-04-18T10:27:38.278080",
        "MEAN_MOTION": 14.15828366,
        "ECCENTRICITY": 0.00147291,
        "INCLINATION": 71.0044,
        "RA_OF_ASC_NODE": 14.2632,
        "ARG_OF_PERICENTER": 125.8069,
        "MEAN_ANOMALY": 234.4425,
        "EPHEMERIS_TYPE": 0,
        "CLASSIFICATION_TYPE": "U",
        "NORAD_CAT_ID": 26070,
        "ELEMENT_SET_NO": 999,
        "REV_AT_EPOCH": 35418,
        "BSTAR": -3.0029407e-05,
        "MEAN_MOTION_DOT": -1.07e-06,
        "MEAN_MOTION_DDOT": 0
    },
    {
        "OBJECT_NAME": "TITAN 4B R/B",
        "OBJECT_ID": "2000-047B",
        "EPOCH": "2026-04-18T20:15:25.447392",
        "MEAN_MOTION": 15.09879487,
        "ECCENTRICITY": 0.004169,
        "INCLINATION": 67.9866,
        "RA_OF_ASC_NODE": 287.5674,
        "ARG_OF_PERICENTER": 349.197,
        "MEAN_ANOMALY": 10.8279,
        "EPHEMERIS_TYPE": 0,
        "CLASSIFICATION_TYPE": "U",
        "NORAD_CAT_ID": 26474,
        "ELEMENT_SET_NO": 999,
        "REV_AT_EPOCH": 39897,
        "BSTAR": 0.00012255,
        "MEAN_MOTION_DOT": 1.889e-05,
        "MEAN_MOTION_DDOT": 0
    },
    {
        "OBJECT_NAME": "ENVISAT",
        "OBJECT_ID": "2002-009A",
        "EPOCH": "2026-04-18T20:39:01.239264",
        "MEAN_MOTION": 14.39050082,
        "ECCENTRICITY": 0.0001161,
        "INCLINATION": 98.379,
        "RA_OF_ASC_NODE": 61.5181,
        "ARG_OF_PERICENTER": 85.4147,
        "MEAN_ANOMALY": 284.2399,
        "EPHEMERIS_TYPE": 0,
        "CLASSIFICATION_TYPE": "U",
        "NORAD_CAT_ID": 27386,
        "ELEMENT_SET_NO": 999,
        "REV_AT_EPOCH": 26495,
        "BSTAR": 2.9727e-05,
        "MEAN_MOTION_DOT": 4.9e-07,
        "MEAN_MOTION_DDOT": 0
    },
    {
        "OBJECT_NAME": "IDEFIX & ARIANE 42P R/B",
        "OBJECT_ID": "2002-021B",
        "EPOCH": "2026-04-18T20:08:32.743104",
        "MEAN_MOTION": 14.31052082,
        "ECCENTRICITY": 0.0012973,
        "INCLINATION": 98.5914,
        "RA_OF_ASC_NODE": 46.9773,
        "ARG_OF_PERICENTER": 70.8821,
        "MEAN_ANOMALY": 289.3765,
        "EPHEMERIS_TYPE": 0,
        "CLASSIFICATION_TYPE": "U",
        "NORAD_CAT_ID": 27422,
        "ELEMENT_SET_NO": 999,
        "REV_AT_EPOCH": 24976,
        "BSTAR": 7.6211e-05,
        "MEAN_MOTION_DOT": 1.57e-06,
        "MEAN_MOTION_DDOT": 0
    },
    {
        "OBJECT_NAME": "AQUA",
        "OBJECT_ID": "2002-022A",
        "EPOCH": "2026-04-18T20:27:12.443040",
        "MEAN_MOTION": 14.62063087,
        "ECCENTRICITY": 0.0001887,
        "INCLINATION": 98.4237,
        "RA_OF_ASC_NODE": 76.9695,
        "ARG_OF_PERICENTER": 103.5874,
        "MEAN_ANOMALY": 286.5684,
        "EPHEMERIS_TYPE": 0,
        "CLASSIFICATION_TYPE": "U",
        "NORAD_CAT_ID": 27424,
        "ELEMENT_SET_NO": 999,
        "REV_AT_EPOCH": 27460,
        "BSTAR": 0.00012136,
        "MEAN_MOTION_DOT": 5.6e-06,
        "MEAN_MOTION_DDOT": 0
    },
    {
        "OBJECT_NAME": "CZ-4B R/B",
        "OBJECT_ID": "2002-024C",
        "EPOCH": "2026-04-18T14:57:09.150048",
        "MEAN_MOTION": 14.14554656,
        "ECCENTRICITY": 0.0049035,
        "INCLINATION": 98.8758,
        "RA_OF_ASC_NODE": 161.8128,
        "ARG_OF_PERICENTER": 269.5304,
        "MEAN_ANOMALY": 204.9585,
        "EPHEMERIS_TYPE": 0,
        "CLASSIFICATION_TYPE": "U",
        "NORAD_CAT_ID": 27432,
        "ELEMENT_SET_NO": 999,
        "REV_AT_EPOCH": 23488,
        "BSTAR": 3.7752e-05,
        "MEAN_MOTION_DOT": 2.8e-07,
        "MEAN_MOTION_DDOT": 0
    },
    {
        "OBJECT_NAME": "MIDORI II (ADEOS-II)",
        "OBJECT_ID": "2002-056A",
        "EPOCH": "2026-04-18T20:18:13.063392",
        "MEAN_MOTION": 14.29314518,
        "ECCENTRICITY": 4.46e-05,
        "INCLINATION": 98.7834,
        "RA_OF_ASC_NODE": 67.619,
        "ARG_OF_PERICENTER": 146.8639,
        "MEAN_ANOMALY": 213.257,
        "EPHEMERIS_TYPE": 0,
        "CLASSIFICATION_TYPE": "U",
        "NORAD_CAT_ID": 27597,
        "ELEMENT_SET_NO": 999,
        "REV_AT_EPOCH": 21603,
        "BSTAR": 9.0655e-05,
        "MEAN_MOTION_DOT": 1.85e-06,
        "MEAN_MOTION_DDOT": 0
    },
    {
        "OBJECT_NAME": "H-2A R/B",
        "OBJECT_ID": "2002-056E",
        "EPOCH": "2026-04-18T11:52:43.737888",
        "MEAN_MOTION": 14.3378862,
        "ECCENTRICITY": 0.00711192,
        "INCLINATION": 98.3267,
        "RA_OF_ASC_NODE": 67.3623,
        "ARG_OF_PERICENTER": 43.7476,
        "MEAN_ANOMALY": 66.2093,
        "EPHEMERIS_TYPE": 0,
        "CLASSIFICATION_TYPE": "U",
        "NORAD_CAT_ID": 27601,
        "ELEMENT_SET_NO": 999,
        "REV_AT_EPOCH": 21981,
        "BSTAR": 9.049205e-05,
        "MEAN_MOTION_DOT": 2.17e-06,
        "MEAN_MOTION_DDOT": 0
    },
    {
        "OBJECT_NAME": "CZ-4B R/B",
        "OBJECT_ID": "2003-049C",
        "EPOCH": "2026-04-18T13:02:37.773600",
        "MEAN_MOTION": 14.55054893,
        "ECCENTRICITY": 0.0049274,
        "INCLINATION": 98.69,
        "RA_OF_ASC_NODE": 105.0213,
        "ARG_OF_PERICENTER": 109.6324,
        "MEAN_ANOMALY": 251.0199,
        "EPHEMERIS_TYPE": 0,
        "CLASSIFICATION_TYPE": "U",
        "NORAD_CAT_ID": 28059,
        "ELEMENT_SET_NO": 999,
        "REV_AT_EPOCH": 19239,
        "BSTAR": 7.3012e-05,
        "MEAN_MOTION_DOT": 2.69e-06,
        "MEAN_MOTION_DDOT": 0
    },
    {
        "OBJECT_NAME": "CZ-2C R/B",
        "OBJECT_ID": "2004-012C",
        "EPOCH": "2026-04-18T10:57:21.244032",
        "MEAN_MOTION": 15.69401122,
        "ECCENTRICITY": 0.00140049,
        "INCLINATION": 97.7142,
        "RA_OF_ASC_NODE": 177.6535,
        "ARG_OF_PERICENTER": 160.6615,
        "MEAN_ANOMALY": 199.518,
        "EPHEMERIS_TYPE": 0,
        "CLASSIFICATION_TYPE": "U",
        "NORAD_CAT_ID": 28222,
        "ELEMENT_SET_NO": 999,
        "REV_AT_EPOCH": 21050,
        "BSTAR": 0.00044226017,
        "MEAN_MOTION_DOT": 0.0005216,
        "MEAN_MOTION_DDOT": 0
    },
    {
        "OBJECT_NAME": "SL-16 R/B",
        "OBJECT_ID": "2004-021B",
        "EPOCH": "2026-04-18T16:37:05.648736",
        "MEAN_MOTION": 14.14605814,
        "ECCENTRICITY": 0.0006547,
        "INCLINATION": 71,
        "RA_OF_ASC_NODE": 148.5472,
        "ARG_OF_PERICENTER": 317.7872,
        "MEAN_ANOMALY": 42.2746,
        "EPHEMERIS_TYPE": 0,
        "CLASSIFICATION_TYPE": "U",
        "NORAD_CAT_ID": 28353,
        "ELEMENT_SET_NO": 999,
        "REV_AT_EPOCH": 12849,
        "BSTAR": -1.3953e-05,
        "MEAN_MOTION_DOT": -7.4e-07,
        "MEAN_MOTION_DDOT": 0
    },
    {
        "OBJECT_NAME": "CZ-4B R/B",
        "OBJECT_ID": "2004-035C",
        "EPOCH": "2026-04-18T19:39:56.834784",
        "MEAN_MOTION": 15.29723363,
        "ECCENTRICITY": 0.0031637,
        "INCLINATION": 97.3427,
        "RA_OF_ASC_NODE": 142.5856,
        "ARG_OF_PERICENTER": 182.8893,
        "MEAN_ANOMALY": 177.217,
        "EPHEMERIS_TYPE": 0,
        "CLASSIFICATION_TYPE": "U",
        "NORAD_CAT_ID": 28415,
        "ELEMENT_SET_NO": 999,
        "REV_AT_EPOCH": 18604,
        "BSTAR": 0.00021335,
        "MEAN_MOTION_DOT": 6.158e-05,
        "MEAN_MOTION_DDOT": 0
    },
    {
        "OBJECT_NAME": "CZ-2C R/B",
        "OBJECT_ID": "2004-046B",
        "EPOCH": "2026-04-18T12:32:41.095104",
        "MEAN_MOTION": 14.27007721,
        "ECCENTRICITY": 0.01402261,
        "INCLINATION": 98.1972,
        "RA_OF_ASC_NODE": 21.0238,
        "ARG_OF_PERICENTER": 37.4967,
        "MEAN_ANOMALY": 323.5897,
        "EPHEMERIS_TYPE": 0,
        "CLASSIFICATION_TYPE": "U",
        "NORAD_CAT_ID": 28480,
        "ELEMENT_SET_NO": 999,
        "REV_AT_EPOCH": 11418,
        "BSTAR": 6.0781756e-05,
        "MEAN_MOTION_DOT": 1.23e-06,
        "MEAN_MOTION_DDOT": 0
    }
]